start=new Date('2021-12-30T00:00:00.000Z').valueOf();
sats=[{"RA_OF_ASC_NODE":"149.5275","SITE":"AFETR","LAUNCH_DATE":"2020-08-07","BSTAR":"0.00008042300000","CENTER_NAME":"EARTH","OBJECT_ID":"2020-055AL","TLE_LINE1":"1 46061U 20055AL  21363.69016292  .00000916  00000-0  80423-4 0  9996","MEAN_ELEMENT_THEORY":"SGP4","REV_AT_EPOCH":"7827","PERIOD":"95.592","APOAPSIS":"548.711","CLASSIFICATION_TYPE":"U","SEMIMAJOR_AXIS":"6925.359","INCLINATION":"53.0546","ELEMENT_SET_NO":"999","COUNTRY_CODE":"US","MEAN_MOTION_DDOT":"0.0000000000000","NORAD_CAT_ID":"46061","RCS_SIZE":"LARGE","MEAN_MOTION_DOT":"0.00000916","TIME_SYSTEM":"UTC","MEAN_MOTION":"15.06396620","EPHEMERIS_TYPE":"0","MEAN_ANOMALY":"261.3565","DECAY_DATE":null,"ARG_OF_PERICENTER":"98.7667","OBJECT_NAME":"STARLINK-1573","ECCENTRICITY":"0.00021470","GP_ID":"192741628","EPOCH":"2021-12-29T16:33:50.076288","PERIAPSIS":"545.737","TLE_LINE2":"2 46061  53.0546 149.5275 0002147  98.7667 261.3565 15.06396620 78272","FILE":"3255236","OBJECT_TYPE":"PAYLOAD","REF_FRAME":"TEME"},{"RA_OF_ASC_NODE":"149.1053","SITE":"AFETR","LAUNCH_DATE":"2020-08-07","CENTER_NAME":"EARTH","BSTAR":"0.00006091800000","PERIOD":"95.593","REV_AT_EPOCH":"7825","MEAN_ELEMENT_THEORY":"SGP4","TLE_LINE1":"1 46062U 20055AM  21363.78968422  .00000626  00000-0  60918-4 0  9993","OBJECT_ID":"2020-055AM","CLASSIFICATION_TYPE":"U","APOAPSIS":"548.708","INCLINATION":"53.0551","SEMIMAJOR_AXIS":"6925.370","MEAN_MOTION_DDOT":"0.0000000000000","ELEMENT_SET_NO":"999","COUNTRY_CODE":"US","EPHEMERIS_TYPE":"0","MEAN_MOTION":"15.06392892","TIME_SYSTEM":"UTC","MEAN_MOTION_DOT":"0.00000626","NORAD_CAT_ID":"46062","RCS_SIZE":"LARGE","ARG_OF_PERICENTER":"95.8006","DECAY_DATE":null,"MEAN_ANOMALY":"264.3226","OBJECT_NAME":"STARLINK-1574","GP_ID":"192742380","EPOCH":"2021-12-29T18:57:08.716608","ECCENTRICITY":"0.00021260","PERIAPSIS":"545.763","FILE":"3255236","TLE_LINE2":"2 46062  53.0551 149.1053 0002126  95.8006 264.3226 15.06392892 78253","REF_FRAME":"TEME","OBJECT_TYPE":"PAYLOAD"},{"SITE":"AFETR","LAUNCH_DATE":"2020-08-07","RA_OF_ASC_NODE":"149.1147","MEAN_ELEMENT_THEORY":"SGP4","PERIOD":"95.591","REV_AT_EPOCH":"7828","OBJECT_ID":"2020-055AN","TLE_LINE1":"1 46063U 20055AN  21363.78599391 -.00005880  00000-0 -37592-3 0  9999","BSTAR":"-0.00037592000000","CENTER_NAME":"EARTH","SEMIMAJOR_AXIS":"6925.289","INCLINATION":"53.0553","CLASSIFICATION_TYPE":"U","APOAPSIS":"549.092","MEAN_MOTION_DOT":"-0.00005880","TIME_SYSTEM":"UTC","EPHEMERIS_TYPE":"0","MEAN_MOTION":"15.06419518","RCS_SIZE":"LARGE","NORAD_CAT_ID":"46063","MEAN_MOTION_DDOT":"0.0000000000000","ELEMENT_SET_NO":"999","COUNTRY_CODE":"US","OBJECT_NAME":"STARLINK-1577","DECAY_DATE":null,"ARG_OF_PERICENTER":"111.5997","MEAN_ANOMALY":"248.5290","PERIAPSIS":"545.215","GP_ID":"192743129","EPOCH":"2021-12-29T18:51:49.873824","ECCENTRICITY":"0.00027990","REF_FRAME":"TEME","OBJECT_TYPE":"PAYLOAD","FILE":"3255236","TLE_LINE2":"2 46063  53.0553 149.1147 0002799 111.5997 248.5290 15.06419518 78284"},{"CLASSIFICATION_TYPE":"U","APOAPSIS":"548.704","SEMIMAJOR_AXIS":"6925.336","INCLINATION":"53.0556","CENTER_NAME":"EARTH","BSTAR":"0.00003357200000","MEAN_ELEMENT_THEORY":"SGP4","REV_AT_EPOCH":"7830","PERIOD":"95.592","OBJECT_ID":"2020-055AP","TLE_LINE1":"1 46064U 20055AP  21363.88551183  .00000218  00000-0  33572-4 0  9991","RA_OF_ASC_NODE":"148.6534","LAUNCH_DATE":"2020-08-07","SITE":"AFETR","TLE_LINE2":"2 46064  53.0556 148.6534 0002171  92.1670 267.9568 15.06404193 78307","FILE":"3255236","REF_FRAME":"TEME","OBJECT_TYPE":"PAYLOAD","GP_ID":"192743381","EPOCH":"2021-12-29T21:15:08.222112","ECCENTRICITY":"0.00021710","PERIAPSIS":"545.697","DECAY_DATE":null,"ARG_OF_PERICENTER":"92.1670","MEAN_ANOMALY":"267.9568","OBJECT_NAME":"STARLINK-1583","MEAN_MOTION_DDOT":"0.0000000000000","ELEMENT_SET_NO":"999","COUNTRY_CODE":"US","MEAN_MOTION_DOT":"0.00000218","TIME_SYSTEM":"UTC","EPHEMERIS_TYPE":"0","MEAN_MOTION":"15.06404193","RCS_SIZE":"LARGE","NORAD_CAT_ID":"46064"},{"APOAPSIS":"548.441","CLASSIFICATION_TYPE":"U","INCLINATION":"53.0510","SEMIMAJOR_AXIS":"6925.366","RA_OF_ASC_NODE":"128.7066","SITE":"AFETR","LAUNCH_DATE":"2020-08-07","BSTAR":"0.00002551400000","CENTER_NAME":"EARTH","TLE_LINE1":"1 46065U 20055AQ  21363.87904673  .00000098  00000-0  25514-4 0  9990","OBJECT_ID":"2020-055AQ","REV_AT_EPOCH":"7856","PERIOD":"95.592","MEAN_ELEMENT_THEORY":"SGP4","ECCENTRICITY":"0.00017470","GP_ID":"192742129","EPOCH":"2021-12-29T21:05:49.637472","PERIAPSIS":"546.021","FILE":"3255236","TLE_LINE2":"2 46065  53.0510 128.7066 0001747  83.4864 276.6324 15.06394374 78567","OBJECT_TYPE":"PAYLOAD","REF_FRAME":"TEME","COUNTRY_CODE":"US","ELEMENT_SET_NO":"999","MEAN_MOTION_DDOT":"0.0000000000000","NORAD_CAT_ID":"46065","RCS_SIZE":"LARGE","EPHEMERIS_TYPE":"0","MEAN_MOTION":"15.06394374","MEAN_MOTION_DOT":"0.00000098","TIME_SYSTEM":"UTC","MEAN_ANOMALY":"276.6324","ARG_OF_PERICENTER":"83.4864","DECAY_DATE":null,"OBJECT_NAME":"STARLINK-1515"},{"MEAN_ANOMALY":"265.1358","DECAY_DATE":null,"ARG_OF_PERICENTER":"94.9781","OBJECT_NAME":"STARLINK-1525","COUNTRY_CODE":"US","ELEMENT_SET_NO":"999","MEAN_MOTION_DDOT":"0.0000000000000","RCS_SIZE":"LARGE","NORAD_CAT_ID":"46066","MEAN_MOTION_DOT":"-0.00004833","TIME_SYSTEM":"UTC","EPHEMERIS_TYPE":"0","MEAN_MOTION":"15.06419607","FILE":"3254971","TLE_LINE2":"2 46066  53.0546 129.8682 0001314  94.9781 265.1358 15.06419607 78532","OBJECT_TYPE":"PAYLOAD","REF_FRAME":"TEME","ECCENTRICITY":"0.00013140","GP_ID":"192711844","EPOCH":"2021-12-29T14:50:19.262400","PERIAPSIS":"546.243","CENTER_NAME":"EARTH","BSTAR":"-0.00030559000000","OBJECT_ID":"2020-055AR","TLE_LINE1":"1 46066U 20055AR  21363.61827850 -.00004833  00000-0 -30559-3 0  9991","MEAN_ELEMENT_THEORY":"SGP4","REV_AT_EPOCH":"7853","PERIOD":"95.591","RA_OF_ASC_NODE":"129.8682","SITE":"AFETR","LAUNCH_DATE":"2020-08-07","APOAPSIS":"548.063","CLASSIFICATION_TYPE":"U","SEMIMAJOR_AXIS":"6925.288","INCLINATION":"53.0546"},{"CLASSIFICATION_TYPE":"U","APOAPSIS":"548.301","INCLINATION":"53.0541","SEMIMAJOR_AXIS":"6925.357","RA_OF_ASC_NODE":"128.9586","SITE":"AFETR","LAUNCH_DATE":"2020-08-07","BSTAR":"0.00008036200000","CENTER_NAME":"EARTH","PERIOD":"95.592","REV_AT_EPOCH":"7857","MEAN_ELEMENT_THEORY":"SGP4","TLE_LINE1":"1 46067U 20055AS  21363.82100525  .00000916  00000-0  80362-4 0  9992","OBJECT_ID":"2020-055AS","EPOCH":"2021-12-29T19:42:14.853600","GP_ID":"192742629","ECCENTRICITY":"0.00015580","PERIAPSIS":"546.143","FILE":"3255236","TLE_LINE2":"2 46067  53.0541 128.9586 0001558  96.8508 263.2658 15.06397140 78572","REF_FRAME":"TEME","OBJECT_TYPE":"PAYLOAD","MEAN_MOTION_DDOT":"0.0000000000000","ELEMENT_SET_NO":"999","COUNTRY_CODE":"US","MEAN_MOTION":"15.06397140","EPHEMERIS_TYPE":"0","MEAN_MOTION_DOT":"0.00000916","TIME_SYSTEM":"UTC","NORAD_CAT_ID":"46067","RCS_SIZE":"LARGE","ARG_OF_PERICENTER":"96.8508","DECAY_DATE":null,"MEAN_ANOMALY":"263.2658","OBJECT_NAME":"STARLINK-1529"},{"SEMIMAJOR_AXIS":"6925.363","INCLINATION":"53.0548","CLASSIFICATION_TYPE":"U","APOAPSIS":"548.446","MEAN_ELEMENT_THEORY":"SGP4","PERIOD":"95.592","REV_AT_EPOCH":"7856","OBJECT_ID":"2020-055AT","TLE_LINE1":"1 46068U 20055AT  21363.76571858  .00000783  00000-0  71470-4 0  9999","CENTER_NAME":"EARTH","BSTAR":"0.00007147000000","SITE":"AFETR","LAUNCH_DATE":"2020-08-07","RA_OF_ASC_NODE":"129.1944","REF_FRAME":"TEME","OBJECT_TYPE":"PAYLOAD","FILE":"3255236","TLE_LINE2":"2 46068  53.0548 129.1944 0001760  94.1261 265.9929 15.06395442 78565","PERIAPSIS":"546.009","EPOCH":"2021-12-29T18:22:38.085312","GP_ID":"192742881","ECCENTRICITY":"0.00017600","OBJECT_NAME":"STARLINK-1532","DECAY_DATE":null,"ARG_OF_PERICENTER":"94.1261","MEAN_ANOMALY":"265.9929","MEAN_MOTION_DOT":"0.00000783","TIME_SYSTEM":"UTC","EPHEMERIS_TYPE":"0","MEAN_MOTION":"15.06395442","NORAD_CAT_ID":"46068","RCS_SIZE":"LARGE","MEAN_MOTION_DDOT":"0.0000000000000","ELEMENT_SET_NO":"999","COUNTRY_CODE":"US"},{"MEAN_MOTION_DDOT":"0.0000000000000","ELEMENT_SET_NO":"999","COUNTRY_CODE":"US","MEAN_MOTION":"15.06399186","EPHEMERIS_TYPE":"0","MEAN_MOTION_DOT":"0.00000591","TIME_SYSTEM":"UTC","NORAD_CAT_ID":"46069","RCS_SIZE":"LARGE","ARG_OF_PERICENTER":"101.6930","DECAY_DATE":null,"MEAN_ANOMALY":"258.4259","OBJECT_NAME":"STARLINK-1533","EPOCH":"2021-12-29T20:19:24.442752","GP_ID":"192741629","ECCENTRICITY":"0.00017820","PERIAPSIS":"545.982","FILE":"3255236","TLE_LINE2":"2 46069  53.0525 128.8344 0001782 101.6930 258.4259 15.06399186 78586","REF_FRAME":"TEME","OBJECT_TYPE":"PAYLOAD","RA_OF_ASC_NODE":"128.8344","SITE":"AFETR","LAUNCH_DATE":"2020-08-07","CENTER_NAME":"EARTH","BSTAR":"0.00005855700000","REV_AT_EPOCH":"7858","PERIOD":"95.592","MEAN_ELEMENT_THEORY":"SGP4","TLE_LINE1":"1 46069U 20055AU  21363.84681068  .00000591  00000-0  58557-4 0  9992","OBJECT_ID":"2020-055AU","CLASSIFICATION_TYPE":"U","APOAPSIS":"548.450","INCLINATION":"53.0525","SEMIMAJOR_AXIS":"6925.351"},{"INCLINATION":"53.0535","SEMIMAJOR_AXIS":"6925.362","APOAPSIS":"548.453","CLASSIFICATION_TYPE":"U","LAUNCH_DATE":"2020-08-07","SITE":"AFETR","RA_OF_ASC_NODE":"129.6601","TLE_LINE1":"1 46070U 20055AV  21363.66251879  .00000239  00000-0  34985-4 0  9995","OBJECT_ID":"2020-055AV","REV_AT_EPOCH":"7855","PERIOD":"95.592","MEAN_ELEMENT_THEORY":"SGP4","BSTAR":"0.00003498500000","CENTER_NAME":"EARTH","PERIAPSIS":"546.002","ECCENTRICITY":"0.00017700","GP_ID":"192742381","EPOCH":"2021-12-29T15:54:01.623456","OBJECT_TYPE":"PAYLOAD","REF_FRAME":"TEME","FILE":"3255236","TLE_LINE2":"2 46070  53.0535 129.6601 0001770  88.9860 271.1332 15.06395477 78550","RCS_SIZE":"LARGE","NORAD_CAT_ID":"46070","EPHEMERIS_TYPE":"0","MEAN_MOTION":"15.06395477","TIME_SYSTEM":"UTC","MEAN_MOTION_DOT":"0.00000239","COUNTRY_CODE":"US","ELEMENT_SET_NO":"999","MEAN_MOTION_DDOT":"0.0000000000000","OBJECT_NAME":"STARLINK-1536","MEAN_ANOMALY":"271.1332","ARG_OF_PERICENTER":"88.9860","DECAY_DATE":null}];
